[{"OBJECT_NAME":"STARLINK-31131","OBJECT_ID":"2023-211G","EPOCH":"2026-03-09T01:45:42.965280","MEAN_MOTION":15.27583424,"ECCENTRICITY":5.739e-5,"INCLINATION":43.0006,"RA_OF_ASC_NODE":77.9577,"ARG_OF_PERICENTER":106.9553,"MEAN_ANOMALY":253.1361,"EPHEMERIS_TYPE":0,"CLASSIFICATION_TYPE":"U","NORAD_CAT_ID":58673,"ELEMENT_SET_NO":999,"REV_AT_EPOCH":12377,"BSTAR":-9.3708123e-5,"MEAN_MOTION_DOT":-2.84e-5,"MEAN_MOTION_DDOT":0},{"OBJECT_NAME":"OBJECT F","OBJECT_ID":"2021-022F","EPOCH":"2026-03-09T23:37:37.165152","MEAN_MOTION":15.31317672,"ECCENTRICITY":0.00120882,"INCLINATION":97.3982,"RA_OF_ASC_NODE":329.8375,"ARG_OF_PERICENTER":85.9268,"MEAN_ANOMALY":274.3355,"EPHEMERIS_TYPE":0,"CLASSIFICATION_TYPE":"U","NORAD_CAT_ID":47937,"ELEMENT_SET_NO":999,"REV_AT_EPOCH":27452,"BSTAR":0.00038690553,"MEAN_MOTION_DOT":0.00011656,"MEAN_MOTION_DDOT":0}]
